{
"type": "FeatureCollection",
"name": "Geo_Paris12",
"crs": { "type": "name", "properties": { "name": "urn:ogc:def:crs:OGC:1.3:CRS84" } },
"features": [
{ "type": "Feature", "properties": { "n_sq_ar": 750000012, "c_ar": 12, "c_arinsee": 75112, "l_ar": "12ème Ardt", "l_aroff": "Reuilly", "n_sq_co": 750001537, "surface": 16314782.6372674, "perimetre": 24089.666297799999, "geom_x_y": { "lon": 2.4213235156144646, "lat": 48.834974154202456 } }, "geometry": { "type": "Polygon", "coordinates": [ [ [ 2.413879624300608, 48.833571439722633 ], [ 2.414007475133324, 48.833570613699521 ], [ 2.414135328487512, 48.833571259811357 ], [ 2.414263144858808, 48.833573378763994 ], [ 2.414390886125424, 48.83357696947148 ], [ 2.414518512782663, 48.833582032639953 ], [ 2.414645986739075, 48.833588564485858 ], [ 2.414773267147892, 48.833596563910383 ], [ 2.414900318621557, 48.833606028942228 ], [ 2.415027100343736, 48.833616955784926 ], [ 2.415257750963932, 48.833639545151065 ], [ 2.4154052247364, 48.833656218958076 ], [ 2.415552232759109, 48.833674587406669 ], [ 2.415698735570758, 48.833694647607523 ], [ 2.415844685587115, 48.833716392134995 ], [ 2.415990037927674, 48.83373981537563 ], [ 2.416134747742195, 48.833764909018299 ], [ 2.416278774266557, 48.83379166477183 ], [ 2.416422071247367, 48.833820077916087 ], [ 2.416564595245781, 48.833850135650522 ], [ 2.416706302742371, 48.833881832369208 ], [ 2.41684715165985, 48.833915155278724 ], [ 2.416987099870336, 48.833950096082255 ], [ 2.417126098454494, 48.833986644651304 ], [ 2.41726411215519, 48.83402478732679 ], [ 2.417401098843349, 48.834064515812422 ], [ 2.418869661010755, 48.834519372928199 ], [ 2.422250597419096, 48.835688670294552 ], [ 2.42189710266962, 48.83630354577415 ], [ 2.421886644821439, 48.836321737876212 ], [ 2.421738546610853, 48.836579334748642 ], [ 2.421699104126533, 48.836652862896756 ], [ 2.421679247128449, 48.836693017798638 ], [ 2.421660457113644, 48.836733395500197 ], [ 2.421642735586306, 48.836773983418134 ], [ 2.421626092214821, 48.836814769907932 ], [ 2.421610525798843, 48.8368557405744 ], [ 2.421596048711524, 48.836896885584864 ], [ 2.421581514845967, 48.836941671829855 ], [ 2.421570323264439, 48.836979676864523 ], [ 2.421560141223157, 48.837017803695772 ], [ 2.421550966099243, 48.837056043317602 ], [ 2.421533223469734, 48.837136080666959 ], [ 2.421533151620008, 48.837136416680409 ], [ 2.421528485270613, 48.837158398772793 ], [ 2.421516217084145, 48.837216187222154 ], [ 2.421293200770969, 48.838255915639195 ], [ 2.420862833305955, 48.839623556163481 ], [ 2.420418034704037, 48.840499245915645 ], [ 2.420229478400791, 48.840725704309946 ], [ 2.419989388198467, 48.840946344589575 ], [ 2.419856198555173, 48.841068746166236 ], [ 2.41957032094945, 48.841533294974262 ], [ 2.419422931450188, 48.842483882706162 ], [ 2.419524405436727, 48.842673454951473 ], [ 2.419527058624618, 48.842677710989243 ], [ 2.419529730145918, 48.842681789043354 ], [ 2.4195325096645, 48.842685835244573 ], [ 2.41953539445547, 48.842689849579692 ], [ 2.419538387263692, 48.842693830263286 ], [ 2.419541482669505, 48.842697774570972 ], [ 2.419544683387724, 48.842701683415306 ], [ 2.41954798671348, 48.842705554984434 ], [ 2.41955138993179, 48.842709388365861 ], [ 2.41955489580785, 48.842713179975483 ], [ 2.419558500223999, 48.842716932491435 ], [ 2.41956220594533, 48.842720642329645 ], [ 2.419566007531937, 48.842724308564421 ], [ 2.41956990498383, 48.842727931195725 ], [ 2.419573898321154, 48.842731508424961 ], [ 2.41957798619132, 48.842735039346174 ], [ 2.419582164536959, 48.842738521241579 ], [ 2.419586436072978, 48.842741955023705 ], [ 2.419590796722071, 48.842745339773444 ], [ 2.419595247866583, 48.84274867369875 ], [ 2.419599785439221, 48.842751954981196 ], [ 2.419604410802497, 48.842755183627318 ], [ 2.419609118506377, 48.842758359610734 ], [ 2.419613909943514, 48.842761480240085 ], [ 2.419617148292442, 48.842763601344288 ], [ 2.419635083558617, 48.842775358404502 ], [ 2.419646087610089, 48.842782943898186 ], [ 2.419656888614707, 48.842790654315699 ], [ 2.419667485229877, 48.842798487851823 ], [ 2.419677873398291, 48.842806441788881 ], [ 2.419688049042509, 48.842814515207735 ], [ 2.419698010839839, 48.842822704504648 ], [ 2.419707753360633, 48.842831007854649 ], [ 2.419717275292097, 48.842839420754579 ], [ 2.419717549003624, 48.842839680197514 ], [ 2.419739533745237, 48.84286062582099 ], [ 2.419752266553107, 48.842873384692581 ], [ 2.419764661200106, 48.842886288517569 ], [ 2.419776709551359, 48.842899333659098 ], [ 2.419788414381584, 48.84291251563404 ], [ 2.419799768938418, 48.842925829013531 ], [ 2.419810766419218, 48.84293927286533 ], [ 2.419821409628706, 48.842952840008358 ], [ 2.41983169177433, 48.842966528610944 ], [ 2.419841610190912, 48.842980333264165 ], [ 2.419851167543298, 48.842994259377178 ], [ 2.419859252082484, 48.843007807812157 ], [ 2.419865836814524, 48.843019486406597 ], [ 2.419872112775117, 48.843031239948481 ], [ 2.419878075926581, 48.843043063921527 ], [ 2.419883726318675, 48.843054953829146 ], [ 2.419889061256505, 48.843066906960296 ], [ 2.419894078044666, 48.843078920603865 ], [ 2.419898085721492, 48.843089293425074 ], [ 2.419901116433128, 48.843097830419644 ], [ 2.41990392195354, 48.843106400497625 ], [ 2.419906498215287, 48.843115001840623 ], [ 2.419908849335647, 48.843123631770467 ], [ 2.419910972619599, 48.84313228757614 ], [ 2.419912864019516, 48.843140965640536 ], [ 2.419914527622942, 48.843149665983496 ], [ 2.419915958049653, 48.843158382283491 ], [ 2.419917160749612, 48.843167114566896 ], [ 2.419919212304415, 48.843187846576768 ], [ 2.419920116447914, 48.843201612007114 ], [ 2.41992065668479, 48.843215386464969 ], [ 2.419920834447035, 48.843229163661832 ], [ 2.419920645667121, 48.843242941779245 ], [ 2.419920093129758, 48.843256715434585 ], [ 2.419919176884601, 48.843270480131295 ], [ 2.419917895598971, 48.843284233164866 ], [ 2.419916252067694, 48.843297968253367 ], [ 2.419912696324042, 48.843320809041437 ], [ 2.419910125895123, 48.843334207772536 ], [ 2.419907201544663, 48.84334757510851 ], [ 2.419903923312434, 48.843360907452102 ], [ 2.41990029399319, 48.843374198521303 ], [ 2.419896313596783, 48.843387447416859 ], [ 2.419891982203036, 48.84340064694419 ], [ 2.419887303919189, 48.843413795324551 ], [ 2.419882278804959, 48.843426887162003 ], [ 2.420108726039546, 48.843535958998096 ], [ 2.421780032415722, 48.844340946700306 ], [ 2.4219975204831, 48.844445697796864 ], [ 2.422106283164041, 48.844498080026867 ], [ 2.422303670928288, 48.844397212901242 ], [ 2.422338494909592, 48.844376811013937 ], [ 2.422358330495518, 48.844364623402129 ], [ 2.422377840194407, 48.844352209374755 ], [ 2.422397018526539, 48.84433957160357 ], [ 2.422415859981801, 48.84432671545823 ], [ 2.422434357707793, 48.844313644503259 ], [ 2.422452508939577, 48.844300362322869 ], [ 2.42247030546224, 48.844286872475031 ], [ 2.422487743128301, 48.844273180335875 ], [ 2.422504813733054, 48.84425928856411 ], [ 2.422521517206542, 48.844245203455003 ], [ 2.422537843991611, 48.844230926761242 ], [ 2.422553792645827, 48.844216465670904 ], [ 2.42256935362184, 48.844201821037409 ], [ 2.422584526820278, 48.844187001853903 ], [ 2.422599306781067, 48.84417200899361 ], [ 2.422613683897134, 48.84415684870573 ], [ 2.422684334104056, 48.844085788072327 ], [ 2.422723137402082, 48.844044638264165 ], [ 2.422760844543903, 48.844003047865264 ], [ 2.422797448579245, 48.843961029434013 ], [ 2.422832933020263, 48.843918595482769 ], [ 2.422867292269304, 48.843875759475843 ], [ 2.422900513926293, 48.84383253394531 ], [ 2.422932584208928, 48.843788933215201 ], [ 2.422963500274951, 48.843744968064996 ], [ 2.422993248312115, 48.843700655516656 ], [ 2.423015820862612, 48.84366693423577 ], [ 2.423062108950489, 48.843597780301288 ], [ 2.42311600459443, 48.84351726549869 ], [ 2.423205242428025, 48.84338394903083 ], [ 2.423206520023862, 48.843382147485997 ], [ 2.423671719351061, 48.84272642441158 ], [ 2.423699948719618, 48.842686634393019 ], [ 2.424442684643866, 48.842029597864766 ], [ 2.42451351834171, 48.841977710307873 ], [ 2.424543977619307, 48.841955399898865 ], [ 2.424556981942593, 48.841945874413419 ], [ 2.424798077253759, 48.841900724241043 ], [ 2.42474060513451, 48.841773971352524 ], [ 2.425049798226904, 48.841725173861491 ], [ 2.427555960843917, 48.841509850671457 ], [ 2.427560333230386, 48.841509474978103 ], [ 2.427571530146799, 48.841508512284392 ], [ 2.427590290763875, 48.841506900472282 ], [ 2.430740533723877, 48.841236159618539 ], [ 2.432451116588784, 48.841089109817325 ], [ 2.433532285114443, 48.840996152387177 ], [ 2.433637697638912, 48.840987088648227 ], [ 2.433676915932669, 48.8411938888989 ], [ 2.435402762214403, 48.841045351076247 ], [ 2.43719129412047, 48.840891400287191 ], [ 2.437204991087533, 48.840958686222919 ], [ 2.437781084301251, 48.843788631523751 ], [ 2.437898445104733, 48.844365104910118 ], [ 2.437936474640606, 48.844551901237359 ], [ 2.437939907741293, 48.844568766753021 ], [ 2.437944577672203, 48.844568361500258 ], [ 2.439505662360966, 48.844432691028665 ], [ 2.440511840011014, 48.844345235114162 ], [ 2.440513050687143, 48.844351517363371 ], [ 2.440517106051769, 48.844372562311378 ], [ 2.44055613202104, 48.844575049838433 ], [ 2.440609609248805, 48.844852520092473 ], [ 2.44061650561859, 48.844888302517695 ], [ 2.440808584814223, 48.844871941000854 ], [ 2.440873695538476, 48.845203976096748 ], [ 2.440874701953011, 48.845209108909202 ], [ 2.440694821987048, 48.845208373313369 ], [ 2.440701433153988, 48.84527302630589 ], [ 2.440766917585829, 48.845913457260458 ], [ 2.440767181489672, 48.845916038735226 ], [ 2.442028407065542, 48.845879639154624 ], [ 2.442843418628651, 48.845856108887418 ], [ 2.444131203223897, 48.845818917778765 ], [ 2.446476342747734, 48.845751151721061 ], [ 2.446527551313934, 48.845749670875591 ], [ 2.446553406475968, 48.845728963297795 ], [ 2.446553316520856, 48.84572845204984 ], [ 2.446545539035713, 48.845684785816552 ], [ 2.446543532985668, 48.845673518450141 ], [ 2.446518911005927, 48.845535259596218 ], [ 2.446431462569775, 48.845044219727342 ], [ 2.446411298119052, 48.844930991488283 ], [ 2.446412030609069, 48.844930919332178 ], [ 2.44653376286512, 48.844918945592326 ], [ 2.446550192710429, 48.844917329019474 ], [ 2.447143484549123, 48.844858968417761 ], [ 2.447844730004179, 48.844789983577286 ], [ 2.447870331512383, 48.84478746483348 ], [ 2.449379522944785, 48.844638983589775 ], [ 2.450754028523554, 48.844438160378125 ], [ 2.450833298578171, 48.844426577288409 ], [ 2.451606441029418, 48.844313608225676 ], [ 2.451616669419979, 48.844312113621598 ], [ 2.45222653660979, 48.844223940815858 ], [ 2.453107400557524, 48.844096579955234 ], [ 2.453502474876353, 48.844045456662869 ], [ 2.456830642668577, 48.843614731119466 ], [ 2.458069758798029, 48.843454340127643 ], [ 2.460587510537537, 48.842972967335392 ], [ 2.460617342886939, 48.842967263247075 ], [ 2.460806264791777, 48.842927606248466 ], [ 2.460985447164559, 48.84288765414896 ], [ 2.461163546887716, 48.842845641882953 ], [ 2.4613405079226, 48.84280158449171 ], [ 2.46151627561232, 48.84275549522448 ], [ 2.461690798025457, 48.842707387342905 ], [ 2.461864021840979, 48.842657276800757 ], [ 2.462035893757132, 48.842605177753491 ], [ 2.462206361798158, 48.842551107960048 ], [ 2.462375374035546, 48.842495080683186 ], [ 2.462390843755861, 48.842489728004686 ], [ 2.462467440262786, 48.842463221115615 ], [ 2.462542878476591, 48.842437115480998 ], [ 2.462708824519619, 48.842377229220048 ], [ 2.462873161554578, 48.842315439666336 ], [ 2.463103654099915, 48.842230198489261 ], [ 2.463109774775122, 48.842227804000522 ], [ 2.463230543812917, 48.842180552516481 ], [ 2.463356103429051, 48.842129452482411 ], [ 2.463480294635029, 48.842076913508173 ], [ 2.463603075030903, 48.842022950696723 ], [ 2.463724410345363, 48.841967583684401 ], [ 2.463844260923059, 48.841910825788013 ], [ 2.463962593865622, 48.841852695750759 ], [ 2.464079372197223, 48.841793211398425 ], [ 2.464194558942704, 48.841732390556807 ], [ 2.464308119824522, 48.841670253761976 ], [ 2.464420020630613, 48.841606815254835 ], [ 2.464435590368454, 48.841596986674148 ], [ 2.464475301187437, 48.841571919592816 ], [ 2.464658481231739, 48.841456283064531 ], [ 2.464833094119883, 48.841341461407929 ], [ 2.465004641965022, 48.841224646302443 ], [ 2.465173075369126, 48.841105871715243 ], [ 2.46533833943996, 48.840985176085688 ], [ 2.465500388870354, 48.840862593399329 ], [ 2.465659171486857, 48.840738163007117 ], [ 2.465814637870563, 48.840611921574286 ], [ 2.465966742663493, 48.84048390848222 ], [ 2.46611543778456, 48.840354163100024 ], [ 2.4662606806225, 48.840222723022649 ], [ 2.466392231794639, 48.840099201657296 ], [ 2.466396788138926, 48.840094923965481 ], [ 2.466402425796446, 48.84008963032921 ], [ 2.466440725602006, 48.840051530022023 ], [ 2.466467757827747, 48.8400233919646 ], [ 2.466494043813844, 48.839994945691025 ], [ 2.466519571188817, 48.839966201938857 ], [ 2.466544335801827, 48.839937166985557 ], [ 2.466568329359541, 48.839907852486171 ], [ 2.466586416484945, 48.839884800832849 ], [ 2.466591542224756, 48.839878268291095 ], [ 2.46720807312803, 48.839122576158893 ], [ 2.467208418075535, 48.839122152300142 ], [ 2.467239540986453, 48.839084005354174 ], [ 2.467244588507827, 48.839078977953235 ], [ 2.46734834365011, 48.838975666963769 ], [ 2.468341896460562, 48.837986316682489 ], [ 2.468450514237695, 48.837878156253105 ], [ 2.469313215059031, 48.837112194137489 ], [ 2.469337150008315, 48.837088488950066 ], [ 2.469345901791427, 48.837079821101334 ], [ 2.469367576466274, 48.837057321810576 ], [ 2.469388651438539, 48.837034577028852 ], [ 2.469409122557631, 48.837011593033608 ], [ 2.469428984301478, 48.836988376995436 ], [ 2.469448229804088, 48.836964934280346 ], [ 2.469466849428807, 48.836941274738784 ], [ 2.469484843121438, 48.83691740376694 ], [ 2.469502202635225, 48.836893328523352 ], [ 2.469518922421023, 48.836869058876587 ], [ 2.469534996993484, 48.836844598400056 ], [ 2.469550424890309, 48.836819956980399 ], [ 2.469553188761531, 48.836815314164475 ], [ 2.469565196502721, 48.836795141770132 ], [ 2.469579311739899, 48.836770161762594 ], [ 2.469641321391595, 48.8366784288799 ], [ 2.469670655985074, 48.836633083840944 ], [ 2.46970108264435, 48.836586049245518 ], [ 2.469707034706672, 48.836576564029961 ], [ 2.469711794635255, 48.836568555669906 ], [ 2.469716335776018, 48.836560492378212 ], [ 2.469720667610634, 48.836552379593073 ], [ 2.469724781974112, 48.836544216378989 ], [ 2.46972868153656, 48.836536008143959 ], [ 2.469732363564111, 48.836527755775236 ], [ 2.469735823942459, 48.836519461952633 ], [ 2.469739068084415, 48.836511130297652 ], [ 2.469742089169266, 48.836502761679398 ], [ 2.469744889885325, 48.836494359707231 ], [ 2.469747467480341, 48.836485927067066 ], [ 2.469749821936325, 48.836477465557508 ], [ 2.469751951863481, 48.836468977870531 ], [ 2.469753857225425, 48.836460467603345 ], [ 2.469755539357068, 48.836451937460012 ], [ 2.469756992790922, 48.836443389215013 ], [ 2.469758220233499, 48.836434824679046 ], [ 2.469758433608196, 48.836433000828627 ], [ 2.469759223019715, 48.836426246556087 ], [ 2.469759997026139, 48.836417658425361 ], [ 2.469760045617181, 48.836416899583078 ], [ 2.46976054494109, 48.836409063896163 ], [ 2.46976086539298, 48.836400463861779 ], [ 2.469760958345429, 48.836391861919473 ], [ 2.469760823789402, 48.836383258968624 ], [ 2.46975669475985, 48.836322017801045 ], [ 2.469747876892932, 48.83619122200971 ], [ 2.469705122377603, 48.835557022916824 ], [ 2.469530206520561, 48.83494727373246 ], [ 2.469503041113299, 48.834869379409263 ], [ 2.46948450821019, 48.834821276849382 ], [ 2.469464707482171, 48.834773394399967 ], [ 2.469443641492131, 48.834725748260283 ], [ 2.469421321004281, 48.834678351967774 ], [ 2.46939775133342, 48.834631219035749 ], [ 2.469372937767103, 48.834584365675383 ], [ 2.469347671123215, 48.8345391992938 ], [ 2.469346891069061, 48.834537805424063 ], [ 2.469319617907067, 48.834491552700335 ], [ 2.469291124957956, 48.834445621023427 ], [ 2.469261421622953, 48.834400023924559 ], [ 2.469230518656314, 48.834354775840339 ], [ 2.469198424078634, 48.834309892094616 ], [ 2.469165145955979, 48.834265383514484 ], [ 2.469130697757582, 48.834221265447972 ], [ 2.469062667846346, 48.834133978352114 ], [ 2.46902645080452, 48.8340903317563 ], [ 2.46898908653137, 48.834047107250093 ], [ 2.46895058440004, 48.834004321062515 ], [ 2.4689109579158, 48.833961984944168 ], [ 2.46885301725976, 48.833903388905014 ], [ 2.468820409754997, 48.833872135252001 ], [ 2.468786981020208, 48.833841261968253 ], [ 2.46875274050044, 48.833810778088704 ], [ 2.468717700355853, 48.833780693559632 ], [ 2.468681870031118, 48.833751017415992 ], [ 2.468645260342374, 48.833721757799289 ], [ 2.468578879845954, 48.833671931548352 ], [ 2.468543371726155, 48.833646611491289 ], [ 2.468507201426788, 48.833621704884074 ], [ 2.468470377057411, 48.833597218057662 ], [ 2.468432912158068, 48.833573159165915 ], [ 2.468394813457254, 48.833549536332399 ], [ 2.468356099971479, 48.833526355037257 ], [ 2.468286531136006, 48.833486248213681 ], [ 2.46822514280427, 48.833452178248443 ], [ 2.468162861796989, 48.83341881927219 ], [ 2.468099709789962, 48.833386183071639 ], [ 2.46803570439952, 48.833354278717458 ], [ 2.467941959203438, 48.833320441518211 ], [ 2.467890209432275, 48.833300669107814 ], [ 2.467838987536109, 48.833280301848042 ], [ 2.467788312504982, 48.833259347918272 ], [ 2.467738199269478, 48.833237812781753 ], [ 2.467688664104097, 48.833215703706429 ], [ 2.466727040081976, 48.832722201290608 ], [ 2.466543130992664, 48.832601026019645 ], [ 2.466464646215246, 48.832547842089582 ], [ 2.466408967511347, 48.832508511079062 ], [ 2.466354334832055, 48.832468543463683 ], [ 2.466300768462928, 48.832427953725031 ], [ 2.466248283286586, 48.832386751823925 ], [ 2.466196896863823, 48.832344952229803 ], [ 2.466120516896985, 48.832280259335178 ], [ 2.466061280794368, 48.832227994748038 ], [ 2.466003434433233, 48.832175055516991 ], [ 2.465946995354535, 48.832121457910759 ], [ 2.465891982470222, 48.832067217304889 ], [ 2.465822344889062, 48.831996038436507 ], [ 2.465765796485997, 48.831935731909773 ], [ 2.465710845927412, 48.831874783151399 ], [ 2.465657518888881, 48.831813212064112 ], [ 2.465605826107252, 48.831751033987196 ], [ 2.46555386804442, 48.831685510872113 ], [ 2.46551402046131, 48.831632759723561 ], [ 2.465475573898311, 48.831579557944529 ], [ 2.465438539102149, 48.831525919974197 ], [ 2.465436536427093, 48.831522879274814 ], [ 2.465402928135603, 48.83147186475427 ], [ 2.465387501976765, 48.8314472836961 ], [ 2.465368765191721, 48.831417423871862 ], [ 2.465322719392736, 48.831335884244915 ], [ 2.465322108649247, 48.831334733029458 ], [ 2.465287562802525, 48.831269695021639 ], [ 2.465254160839575, 48.831203111613895 ], [ 2.465222524201666, 48.83113615295764 ], [ 2.465192662196519, 48.831068840680523 ], [ 2.465164584159564, 48.831001193712176 ], [ 2.465138299388859, 48.830933234579454 ], [ 2.465113814504337, 48.830864981300358 ], [ 2.465091137423099, 48.830796458194214 ], [ 2.465070409268199, 48.830728116473736 ], [ 2.465070277489214, 48.830727683291009 ], [ 2.465027833534208, 48.830592743768911 ], [ 2.464657138256376, 48.8294141894267 ], [ 2.464638738957054, 48.829355689808743 ], [ 2.46461907709106, 48.829236159114672 ], [ 2.464525811751384, 48.82866915762591 ], [ 2.464515748426583, 48.828607971097362 ], [ 2.464519673707865, 48.828533889159125 ], [ 2.464542900211645, 48.828095704112343 ], [ 2.464551175908405, 48.827939553009173 ], [ 2.464608199418846, 48.827634035964749 ], [ 2.464609420368473, 48.827627492255324 ], [ 2.464734203705179, 48.827604273406649 ], [ 2.464735432001609, 48.827604044169931 ], [ 2.464764434641364, 48.827598647376519 ], [ 2.464808171284021, 48.827590508695998 ], [ 2.464809448707487, 48.827590270684709 ], [ 2.464898696145562, 48.827573663051702 ], [ 2.464910562760108, 48.827571456042449 ], [ 2.464932115121506, 48.827567445071615 ], [ 2.464953571939121, 48.827563452556099 ], [ 2.465011878735794, 48.827552602645987 ], [ 2.465085903486663, 48.827538827226917 ], [ 2.465229253481917, 48.827669961664839 ], [ 2.465433296789282, 48.827569011822767 ], [ 2.466176345841021, 48.82733166080007 ], [ 2.466175351328039, 48.827329147132417 ], [ 2.46589901078133, 48.826630122723678 ], [ 2.465891134683786, 48.826610202574066 ], [ 2.465881120977611, 48.826584873085153 ], [ 2.465831816136176, 48.82646014647775 ], [ 2.465760946799824, 48.826280876791287 ], [ 2.465760372927457, 48.826279056609138 ], [ 2.465755283440004, 48.826262897449602 ], [ 2.465700578729851, 48.826089226509552 ], [ 2.46567182020387, 48.825997931075499 ], [ 2.465360844427243, 48.825010665485564 ], [ 2.465358578138629, 48.825003470310932 ], [ 2.465344933440497, 48.825002602576063 ], [ 2.465307749144749, 48.825000268850339 ], [ 2.465261616239006, 48.824997372566919 ], [ 2.465206702126641, 48.824993927055253 ], [ 2.465147436229432, 48.824990207534242 ], [ 2.465149902183169, 48.824978202120747 ], [ 2.46524831696291, 48.824499088862837 ], [ 2.465247887169225, 48.824498098536161 ], [ 2.46471812324683, 48.823277567853935 ], [ 2.464666345703252, 48.823273129727404 ], [ 2.464364712431111, 48.822746925479308 ], [ 2.463487200024914, 48.8212160177847 ], [ 2.46290717870913, 48.820204059355881 ], [ 2.462798860668585, 48.819857400327649 ], [ 2.462728813925122, 48.819633222185601 ], [ 2.462638086486805, 48.819342849897666 ], [ 2.462523504522036, 48.819267437031179 ], [ 2.462527913550888, 48.819264488922663 ], [ 2.462604098662343, 48.819213529379368 ], [ 2.462810344737933, 48.819075575131357 ], [ 2.462804779450599, 48.819028817864115 ], [ 2.462799207210924, 48.819026096512843 ], [ 2.462120993095786, 48.818694887383472 ], [ 2.461326547377775, 48.818306906632401 ], [ 2.461075270155579, 48.818184187253294 ], [ 2.45976596977077, 48.817544736133549 ], [ 2.459195696946376, 48.817334019765276 ], [ 2.459248857459161, 48.817244935309482 ], [ 2.458764517861951, 48.817062048904653 ], [ 2.458631404827662, 48.817011785554186 ], [ 2.458478663072087, 48.817012422259694 ], [ 2.457148244620069, 48.817017974229763 ], [ 2.454546044301545, 48.817137079571168 ], [ 2.453272890387197, 48.817242918522609 ], [ 2.453209456844835, 48.817248191983083 ], [ 2.451839997056373, 48.817570209269661 ], [ 2.450826423478556, 48.817808530443116 ], [ 2.450524610091628, 48.817847339571507 ], [ 2.449852916848047, 48.817933705376717 ], [ 2.449635230968862, 48.817961695808407 ], [ 2.447624028259356, 48.818027518403312 ], [ 2.442665438727444, 48.817956695888775 ], [ 2.442140117120039, 48.817978765767009 ], [ 2.441636400289774, 48.818042180440642 ], [ 2.440088671039789, 48.818338558199216 ], [ 2.440058852699126, 48.818343802220163 ], [ 2.440042616866046, 48.818346374845056 ], [ 2.440026317681014, 48.818348759201818 ], [ 2.440009956505973, 48.818350955296786 ], [ 2.439993540150464, 48.818352963161885 ], [ 2.439977074081373, 48.818354781023906 ], [ 2.439960561022521, 48.818356408895582 ], [ 2.439944007792917, 48.818357845909503 ], [ 2.439893432085938, 48.818361470920856 ], [ 2.439861440176687, 48.818363283491124 ], [ 2.439829405932983, 48.818364726211655 ], [ 2.439804593725066, 48.81836555610937 ], [ 2.439797329346047, 48.818365799981777 ], [ 2.439752635589755, 48.818366271404265 ], [ 2.439717116293145, 48.818366183219176 ], [ 2.439681604107805, 48.818365686740918 ], [ 2.439646111310567, 48.818364780228301 ], [ 2.439644670973967, 48.818364726710897 ], [ 2.439610646053982, 48.818363465518289 ], [ 2.439575223319198, 48.818361742681113 ], [ 2.439554527375967, 48.81836049447881 ], [ 2.439539849935748, 48.818359609950043 ], [ 2.439505056610829, 48.818357108485948 ], [ 2.439504539484235, 48.818357070986302 ], [ 2.437349913715853, 48.818219606476191 ], [ 2.437386078042366, 48.818597271085878 ], [ 2.437423204155776, 48.81882108236114 ], [ 2.437470197469028, 48.81910438771623 ], [ 2.437410261030724, 48.819148080615442 ], [ 2.437386425760435, 48.819164610481778 ], [ 2.437372235223096, 48.81917399433194 ], [ 2.437357801309699, 48.819183213349135 ], [ 2.437343124059073, 48.819192263935946 ], [ 2.437328210300021, 48.819201144325703 ], [ 2.437313064147269, 48.819209851839553 ], [ 2.43729768973507, 48.81921838200001 ], [ 2.437282092510853, 48.81922673483259 ], [ 2.437266276599083, 48.819234906759149 ], [ 2.437250248838528, 48.819242895113668 ], [ 2.437234010620072, 48.819250697204531 ], [ 2.437214730063013, 48.819259611889336 ], [ 2.437184098265787, 48.819273773152219 ], [ 2.437147701201911, 48.819289965935653 ], [ 2.437136354828118, 48.819295013773605 ], [ 2.437088057571757, 48.819315700452364 ], [ 2.437039203764379, 48.819335834074415 ], [ 2.437009771942855, 48.819347580726998 ], [ 2.436984282801717, 48.819357322345738 ], [ 2.436958540783896, 48.819366769572468 ], [ 2.436932552737941, 48.819375918841736 ], [ 2.436926997555828, 48.819377792159656 ], [ 2.436906325512417, 48.819384766588151 ], [ 2.436879870021889, 48.819393311064253 ], [ 2.436870192391299, 48.819396303572219 ], [ 2.43679778505814, 48.819418691520092 ], [ 2.436715080424792, 48.819443180419071 ], [ 2.436604434782423, 48.819475408032794 ], [ 2.436536090663488, 48.819494450409458 ], [ 2.436493014587365, 48.819506451915409 ], [ 2.436454648687968, 48.819516636385664 ], [ 2.436417091394601, 48.819526099759642 ], [ 2.43637928819662, 48.819535127565246 ], [ 2.43634125271359, 48.819543719866424 ], [ 2.436302997261731, 48.819551871324855 ], [ 2.436264525927526, 48.819559581959503 ], [ 2.436212825474794, 48.819568973193526 ], [ 2.43618253746465, 48.819573970302486 ], [ 2.436152077500152, 48.819578621233497 ], [ 2.436121584678742, 48.8195829095542 ], [ 2.43609094169424, 48.819586851799514 ], [ 2.436060199034312, 48.819590439213663 ], [ 2.43602936623271, 48.81959367184156 ], [ 2.435998450099375, 48.819596549715286 ], [ 2.435967465644877, 48.819599070207374 ], [ 2.435936419669647, 48.81960123424934 ], [ 2.435184807429198, 48.819648198735059 ], [ 2.435180672365446, 48.819648340190625 ], [ 2.435178883694502, 48.819648379408427 ], [ 2.435177059604821, 48.81964841935828 ], [ 2.435173445920763, 48.819648458049649 ], [ 2.43517168903105, 48.819648455146904 ], [ 2.435169832704311, 48.819648453573201 ], [ 2.435166219945633, 48.819648406828236 ], [ 2.435162607615713, 48.819648320512748 ], [ 2.435160758799847, 48.819648254219459 ], [ 2.435158998477242, 48.819648191042262 ], [ 2.435155395224614, 48.819648021127712 ], [ 2.435153564571148, 48.819647912649515 ], [ 2.435151795163452, 48.819647808058143 ], [ 2.435148200978512, 48.819647555443801 ], [ 2.435144614060933, 48.819647260593122 ], [ 2.435141037124698, 48.819646924418322 ], [ 2.435137467446101, 48.819646546906483 ], [ 2.435133910472679, 48.81964612808337 ], [ 2.435132131524345, 48.819645898433706 ], [ 2.43513036346124, 48.819645669734776 ], [ 2.43512683055577, 48.819645166484023 ], [ 2.435123310287301, 48.819644628217283 ], [ 2.435121557877309, 48.819644337535429 ], [ 2.435119805467338, 48.819644046853519 ], [ 2.435116316066561, 48.819643425090675 ], [ 2.435114580428024, 48.819643094915456 ], [ 2.435112843437244, 48.819642763834459 ], [ 2.435109388950842, 48.819642062192123 ], [ 2.435107672817129, 48.819641691637166 ], [ 2.435105955321635, 48.819641321075721 ], [ 2.435102539835357, 48.819640539573165 ], [ 2.435099145196446, 48.819639719495903 ], [ 2.435095772766711, 48.819638860850382 ], [ 2.435094082043507, 48.819638407672912 ], [ 2.43509242390807, 48.819637963643075 ], [ 2.435089101354086, 48.819637026987486 ], [ 2.435087450505595, 48.81963653892273 ], [ 2.435085800999555, 48.819636052663022 ], [ 2.435033757828665, 48.81962023142556 ], [ 2.434998152288392, 48.819608792238739 ], [ 2.434975873376131, 48.819602892301042 ], [ 2.434963825841861, 48.819599470814893 ], [ 2.434951872398623, 48.819595913067353 ], [ 2.434940014437437, 48.819592216366864 ], [ 2.434928256015056, 48.819588383430833 ], [ 2.434916599835668, 48.819584416070718 ], [ 2.434905051346865, 48.819580314312269 ], [ 2.434893611871525, 48.819576081759372 ], [ 2.434882286877027, 48.819571716639082 ], [ 2.434871079047848, 48.819567222561652 ], [ 2.434859991117801, 48.819562598640566 ], [ 2.434849027123815, 48.819557849391941 ], [ 2.434838189809138, 48.819552973029921 ], [ 2.434827484582342, 48.819547973177635 ], [ 2.434816914157425, 48.819542850747304 ], [ 2.434500639300965, 48.819373165299822 ], [ 2.434323619591115, 48.81938590133705 ], [ 2.434179758874686, 48.819280808751529 ], [ 2.434303337379313, 48.820155698880427 ], [ 2.43299973753034, 48.821057906655277 ], [ 2.432475474948423, 48.821420731259956 ], [ 2.432889997744038, 48.821690164021554 ], [ 2.432624843116764, 48.821901717446387 ], [ 2.432189862301184, 48.821618810311676 ], [ 2.430371437682967, 48.822882003277158 ], [ 2.43054357617119, 48.823071072356726 ], [ 2.430692146357671, 48.823234254771116 ], [ 2.430328485806724, 48.82336892242472 ], [ 2.430126524488878, 48.82344135241965 ], [ 2.429981982727984, 48.823490616381385 ], [ 2.429836160974664, 48.823538204832111 ], [ 2.429689104303234, 48.823584107189845 ], [ 2.42954085512324, 48.823628307463785 ], [ 2.429391459911348, 48.823670791481547 ], [ 2.429073220807692, 48.823754926820818 ], [ 2.428909159079172, 48.823795087287756 ], [ 2.428744062284993, 48.823833350308632 ], [ 2.428577979600841, 48.823869704422414 ], [ 2.428410960183184, 48.823904139967041 ], [ 2.428182100514462, 48.823948336355222 ], [ 2.427966539723961, 48.823987191602889 ], [ 2.427749983034226, 48.824023555835687 ], [ 2.427532501416726, 48.824057418595721 ], [ 2.427314154937609, 48.824088770272482 ], [ 2.427095013207427, 48.824117600402417 ], [ 2.426728455240566, 48.824160323013778 ], [ 2.42648560521813, 48.824185011888815 ], [ 2.426242138823069, 48.824206897572829 ], [ 2.425998131093208, 48.824225972327895 ], [ 2.425753658369195, 48.82424223381917 ], [ 2.425601721377839, 48.824248803413262 ], [ 2.425401070988883, 48.824257480720206 ], [ 2.425157012181308, 48.824264582890457 ], [ 2.424912801807763, 48.8242688724009 ], [ 2.424668514867427, 48.824270345114428 ], [ 2.424424226300329, 48.824269002290436 ], [ 2.424180012418131, 48.824264844296273 ], [ 2.423935944074811, 48.824257872372755 ], [ 2.423806819301848, 48.824252691371356 ], [ 2.423692097571845, 48.824248087787666 ], [ 2.423448546457184, 48.82423549449414 ], [ 2.422807816082077, 48.824205020485465 ], [ 2.422734302746198, 48.824201524137131 ], [ 2.422534620165613, 48.824192025918762 ], [ 2.422101135534051, 48.824171406619925 ], [ 2.421375790365054, 48.82413690052099 ], [ 2.420894062304461, 48.824129496194466 ], [ 2.420780791161552, 48.824126778324157 ], [ 2.420679114840564, 48.824125577995936 ], [ 2.420577424139346, 48.824125549392356 ], [ 2.420475746301191, 48.824126691746009 ], [ 2.42037411534932, 48.824129007020652 ], [ 2.420272561270674, 48.824132492663651 ], [ 2.420171112670511, 48.824137147914648 ], [ 2.420069804984139, 48.824142970247529 ], [ 2.420015402797743, 48.824146730196347 ], [ 2.419968625886663, 48.824149964999201 ], [ 2.419859202098761, 48.824161124228958 ], [ 2.41978505671244, 48.824169770808098 ], [ 2.419711151058753, 48.824179271108683 ], [ 2.419637508338265, 48.824189620746814 ], [ 2.419564151721776, 48.824200818036715 ], [ 2.419491100323798, 48.824212858574818 ], [ 2.419181923257955, 48.824269426118853 ], [ 2.419023734950829, 48.824301275197683 ], [ 2.418838258583842, 48.824342775714932 ], [ 2.418745266732805, 48.824365377337351 ], [ 2.418652885375382, 48.824389045811429 ], [ 2.418561144520936, 48.824413776787566 ], [ 2.418261295573364, 48.824492798736529 ], [ 2.418102080637054, 48.824531701665272 ], [ 2.41788490689104, 48.82458174967492 ], [ 2.417667153959543, 48.824630689142523 ], [ 2.417552166838, 48.824655418562955 ], [ 2.417443934965088, 48.824677275812263 ], [ 2.417341792347738, 48.824696622808609 ], [ 2.417335143533353, 48.824697882809602 ], [ 2.417225821232767, 48.82471723249823 ], [ 2.417073878234993, 48.824742016992325 ], [ 2.416932678004807, 48.824763259785932 ], [ 2.416790937441189, 48.824782871916199 ], [ 2.416696558812298, 48.824794745578103 ], [ 2.416610194883838, 48.82480453215171 ], [ 2.416523586005058, 48.824813321864127 ], [ 2.416436756717359, 48.824821113035803 ], [ 2.416349734306105, 48.824827902201996 ], [ 2.416187535379295, 48.824838088188763 ], [ 2.416033446690083, 48.824845927528756 ], [ 2.41587917627537, 48.824851989524888 ], [ 2.41572476773518, 48.824856274389369 ], [ 2.415570268816592, 48.82485877695877 ], [ 2.415051287363023, 48.824858247811221 ], [ 2.414790113157252, 48.824853486742079 ], [ 2.414690015477003, 48.824849864349368 ], [ 2.414599277151417, 48.824845478255206 ], [ 2.414508667730141, 48.824840045855161 ], [ 2.41441821714257, 48.824833570893517 ], [ 2.414327951262431, 48.824826054396631 ], [ 2.414165013564105, 48.824813095899977 ], [ 2.414065510908161, 48.824806714828973 ], [ 2.414060599379376, 48.824806456927355 ], [ 2.413965856431922, 48.824801482327501 ], [ 2.413866076007297, 48.824797398522051 ], [ 2.413555314249358, 48.824791272879054 ], [ 2.413461096994574, 48.824790791017939 ], [ 2.413352307560075, 48.824790234899176 ], [ 2.413195758821911, 48.824791520086656 ], [ 2.413076578241587, 48.824794087508465 ], [ 2.412957482976271, 48.824798028570534 ], [ 2.412838467558384, 48.824803344145508 ], [ 2.412515263436035, 48.82482330303138 ], [ 2.412336227733906, 48.824837280971927 ], [ 2.412283279996683, 48.824842034762497 ], [ 2.41215758822704, 48.824853319253421 ], [ 2.411925419906953, 48.824877670453589 ], [ 2.41186737872947, 48.82488464114558 ], [ 2.411777711795214, 48.824895410788315 ], [ 2.411763099273566, 48.824897340012434 ], [ 2.411630496571382, 48.824914848680905 ], [ 2.411483815122912, 48.824935980736939 ], [ 2.411483392125211, 48.824936047007483 ], [ 2.411221334956281, 48.82497677299839 ], [ 2.411039867829272, 48.825007680286788 ], [ 2.410859243207673, 48.825040673495316 ], [ 2.410750311827288, 48.825062272124832 ], [ 2.410677869036631, 48.825077778260678 ], [ 2.410605849942665, 48.825094116560578 ], [ 2.410534270937446, 48.825111282609235 ], [ 2.410463156605633, 48.825129270233049 ], [ 2.410392528787567, 48.825148075043629 ], [ 2.410322410696005, 48.825167691760029 ], [ 2.41025281876409, 48.825188112369865 ], [ 2.41015326773329, 48.825219693867844 ], [ 2.410070733435799, 48.825247174453949 ], [ 2.409988937490947, 48.825275602066135 ], [ 2.40990790587586, 48.825304967840346 ], [ 2.40982766185383, 48.825335261999719 ], [ 2.409748231382117, 48.82536647747898 ], [ 2.409669636372635, 48.825398603595431 ], [ 2.40959190282367, 48.825431629686491 ], [ 2.409397205060326, 48.825518142931728 ], [ 2.409255276929078, 48.82558404213971 ], [ 2.409115111658926, 48.825651566956573 ], [ 2.408976751711525, 48.825720696013214 ], [ 2.408771892355555, 48.825827338991814 ], [ 2.408634866204022, 48.825901885755123 ], [ 2.408499831007558, 48.825977999916198 ], [ 2.408366827889491, 48.82605565830125 ], [ 2.40823589661191, 48.826134837729903 ], [ 2.407784045712434, 48.82642196538108 ], [ 2.407543134708046, 48.826582803614549 ], [ 2.407340703019347, 48.826725525364267 ], [ 2.407213849700679, 48.826819060713007 ], [ 2.407089487186266, 48.826914042766099 ], [ 2.406997226757191, 48.826987044075103 ], [ 2.406967652572491, 48.827010443834368 ], [ 2.40663382087435, 48.827272306970258 ], [ 2.406625074679899, 48.827278870346305 ], [ 2.406404343932441, 48.827444562193612 ], [ 2.405927338654997, 48.8277952385086 ], [ 2.405452755710011, 48.828147347687988 ], [ 2.405305078131211, 48.828254541347654 ], [ 2.405166384738194, 48.828351603140973 ], [ 2.405025145605499, 48.828447051225709 ], [ 2.404881404638055, 48.828540857931308 ], [ 2.404735205762522, 48.828632993788645 ], [ 2.40458659288613, 48.828723431127287 ], [ 2.404435612661935, 48.828812140491742 ], [ 2.404304231579636, 48.828883535503905 ], [ 2.404225682794182, 48.828924205816321 ], [ 2.404146070893526, 48.828963964215859 ], [ 2.404065421903542, 48.829002798239024 ], [ 2.40405471951054, 48.829007765185992 ], [ 2.403983755009186, 48.829040698086359 ], [ 2.403901101685435, 48.829077651321548 ], [ 2.403622037767324, 48.829198509454095 ], [ 2.403340835645201, 48.829317189682705 ], [ 2.403105720518976, 48.829414173562846 ], [ 2.402919035688237, 48.829487819129469 ], [ 2.402909973294341, 48.829491231058064 ], [ 2.402674487262746, 48.829579905664922 ], [ 2.402487209894153, 48.829647144090366 ], [ 2.402431364519245, 48.829631322187552 ], [ 2.402027199742744, 48.829516815381467 ], [ 2.401662328698503, 48.829413440102897 ], [ 2.401494324355356, 48.829365842189254 ], [ 2.401303914034882, 48.829311893853102 ], [ 2.400920517490214, 48.829203266557535 ], [ 2.399059031330721, 48.828675832411349 ], [ 2.395723159554499, 48.827730541968762 ], [ 2.394658609492223, 48.827561970178238 ], [ 2.394618158068745, 48.827555564257032 ], [ 2.394352160027871, 48.827513442694553 ], [ 2.393571995138783, 48.827173121729977 ], [ 2.393472132802878, 48.827129560607062 ], [ 2.393320947753657, 48.827063610922359 ], [ 2.392504106848682, 48.826707277677514 ], [ 2.391800207706176, 48.826400206923346 ], [ 2.391708071834238, 48.826360013051762 ], [ 2.391514743505959, 48.826275673035745 ], [ 2.391502122238009, 48.826270165816915 ], [ 2.39138198233534, 48.826217756021833 ], [ 2.39129180539997, 48.826178417199046 ], [ 2.391141037839472, 48.826112645774707 ], [ 2.390258194242504, 48.825727500033253 ], [ 2.390257092653725, 48.825728284065725 ], [ 2.390256535080623, 48.825728673349268 ], [ 2.390207342988933, 48.825762840612384 ], [ 2.38906241751576, 48.8265580059211 ], [ 2.388533702224525, 48.826925149774254 ], [ 2.387586779657745, 48.82758268081259 ], [ 2.387282371606297, 48.827813353652445 ], [ 2.387203739257953, 48.827868473443431 ], [ 2.387069129276422, 48.827965086585166 ], [ 2.386934821607698, 48.828059232345971 ], [ 2.386933967929364, 48.828059892604976 ], [ 2.386819349793032, 48.828158698972913 ], [ 2.386697071492179, 48.828262961097884 ], [ 2.386582452460423, 48.828361767220912 ], [ 2.386460173209515, 48.828466029084723 ], [ 2.386345553282326, 48.828564834962826 ], [ 2.386223273081356, 48.828669096565619 ], [ 2.386108652258727, 48.82876790219877 ], [ 2.385986371107581, 48.828872163540424 ], [ 2.385871749389605, 48.828970968928644 ], [ 2.385749467298973, 48.829075229109904 ], [ 2.385634844674943, 48.829174035152484 ], [ 2.385512561634226, 48.829278295072648 ], [ 2.385397938114727, 48.82937710087031 ], [ 2.385275654123914, 48.829481360529364 ], [ 2.385161029719442, 48.829580165182762 ], [ 2.38503874476802, 48.829684425479968 ], [ 2.38503837610748, 48.829684729370122 ], [ 2.384905972525631, 48.829789180324646 ], [ 2.384783685211674, 48.829893440334658 ], [ 2.384651280589462, 48.829997890987769 ], [ 2.384528992276569, 48.830102150717991 ], [ 2.384450965516721, 48.830163703127297 ], [ 2.384394312094964, 48.830185339958533 ], [ 2.384421138497164, 48.830205653594497 ], [ 2.383323738785498, 48.83107090172885 ], [ 2.382842038739402, 48.831450593933894 ], [ 2.381005237937323, 48.832898172707502 ], [ 2.38099245980066, 48.832908242449292 ], [ 2.378926285028227, 48.834494545692571 ], [ 2.378456774272076, 48.834880054830393 ], [ 2.377076382409863, 48.836012657334358 ], [ 2.376982546733022, 48.836099264067897 ], [ 2.374913379257091, 48.838008954402461 ], [ 2.374828199346705, 48.838087563347329 ], [ 2.374807098557297, 48.838107038514245 ], [ 2.37359844216443, 48.839210041684296 ], [ 2.373089401327686, 48.839674499663445 ], [ 2.372545287830297, 48.840071249922417 ], [ 2.372414018728416, 48.840171116340571 ], [ 2.372120455208859, 48.840394226695281 ], [ 2.370575607294024, 48.841528149577925 ], [ 2.369181837918419, 48.842551117264136 ], [ 2.368462942380708, 48.843093664356907 ], [ 2.366029183892614, 48.844930285929223 ], [ 2.364836413709806, 48.845843713015903 ], [ 2.364433128355797, 48.846140036887 ], [ 2.365366647494866, 48.846695466296076 ], [ 2.365378777673753, 48.846702653556306 ], [ 2.365483449345827, 48.846765033303207 ], [ 2.365485498206278, 48.846766201643185 ], [ 2.365548215124831, 48.84680347987392 ], [ 2.36556142469394, 48.846811330269333 ], [ 2.365605988329807, 48.846837849413795 ], [ 2.365650421202715, 48.846864367847502 ], [ 2.365682292369178, 48.846883323515897 ], [ 2.365685631295673, 48.846885308114132 ], [ 2.365694997301973, 48.846890878029591 ], [ 2.365941978828985, 48.847037763562668 ], [ 2.365968023757517, 48.847053216752684 ], [ 2.366116855142304, 48.847141760212793 ], [ 2.366137492190343, 48.847154035161246 ], [ 2.366145444456016, 48.847158769241148 ], [ 2.366502596086439, 48.84737124454913 ], [ 2.366519794267493, 48.847409720182156 ], [ 2.367309371355026, 48.849175966100894 ], [ 2.367311699670687, 48.849181178488337 ], [ 2.367991386804722, 48.850677177750299 ], [ 2.368030923056307, 48.850764196773511 ], [ 2.368385844883155, 48.851545345931456 ], [ 2.368417692817263, 48.851613647288055 ], [ 2.368418755409635, 48.851615928261893 ], [ 2.368574425795795, 48.851949786795061 ], [ 2.368598714720008, 48.852003017292326 ], [ 2.368600745264712, 48.852007406959125 ], [ 2.368612358871244, 48.852032508939303 ], [ 2.368613150709159, 48.852034079791267 ], [ 2.368636812528627, 48.85208497224599 ], [ 2.368670860964884, 48.852158200974792 ], [ 2.368738580824188, 48.852300817059785 ], [ 2.368801899186301, 48.852437579361663 ], [ 2.368809812205495, 48.852454752880064 ], [ 2.36887231188824, 48.852591064726049 ], [ 2.369077956861985, 48.85303372153183 ], [ 2.369079241331072, 48.853036479424006 ], [ 2.369102354168097, 48.853086188890828 ], [ 2.369130100046733, 48.853145857924417 ], [ 2.369137996500428, 48.853162841558365 ], [ 2.369337202135752, 48.853179325469959 ], [ 2.370280570180626, 48.853257380749881 ], [ 2.370297803121295, 48.853257283478229 ], [ 2.370307288100071, 48.853256752412861 ], [ 2.370316308537963, 48.853256092992787 ], [ 2.370316815108879, 48.8532560138176 ], [ 2.370351165332938, 48.853250615900244 ], [ 2.370373631384069, 48.853244331631743 ], [ 2.370377054573864, 48.853243113035468 ], [ 2.370381910826159, 48.853241383952955 ], [ 2.37039043628207, 48.853238152473466 ], [ 2.370404567937281, 48.853231806356838 ], [ 2.370913733913234, 48.852906202828898 ], [ 2.371298548225945, 48.852683604025721 ], [ 2.371363720562105, 48.852649210754031 ], [ 2.371404500413576, 48.852629212048498 ], [ 2.371444110897596, 48.852608877123608 ], [ 2.371511744462631, 48.852576617372776 ], [ 2.371739106777822, 48.852478523770039 ], [ 2.371818917697788, 48.852447996981702 ], [ 2.371852965171379, 48.852436114509011 ], [ 2.371886636273745, 48.852423571724657 ], [ 2.371968671538228, 48.85239572579151 ], [ 2.373551931948097, 48.851931463339902 ], [ 2.373787214093654, 48.85186519672007 ], [ 2.374850048438323, 48.851604415630817 ], [ 2.377772832411308, 48.8508853282068 ], [ 2.378510291869158, 48.850706371975875 ], [ 2.378818197761669, 48.850629818919366 ], [ 2.379396566835755, 48.850550917045872 ], [ 2.380119515262639, 48.85045073005363 ], [ 2.381574900165629, 48.850385326534891 ], [ 2.383779238705541, 48.850212676893207 ], [ 2.384343303660782, 48.850131506429818 ], [ 2.389492589558715, 48.849354502306355 ], [ 2.390097094060502, 48.849264380852873 ], [ 2.393368318437597, 48.848762715942847 ], [ 2.394361210058953, 48.84861041946543 ], [ 2.395327268533345, 48.848470178880419 ], [ 2.39591662517278, 48.848384618244744 ], [ 2.3965072805899, 48.848331707805826 ], [ 2.396952938223178, 48.84829178423476 ], [ 2.397358472297004, 48.848255454879968 ], [ 2.39761948974853, 48.848232069495609 ], [ 2.397803817614699, 48.848215555349555 ], [ 2.398668128317027, 48.848138116241948 ], [ 2.398863272933275, 48.848120631366577 ], [ 2.399117693542693, 48.848097834622727 ], [ 2.399263524728671, 48.848085048761412 ], [ 2.399407099546139, 48.848072469938728 ], [ 2.399453228634635, 48.848068425966567 ], [ 2.403452116529008, 48.847717869263064 ], [ 2.404080324295172, 48.84765733470465 ], [ 2.406273698822662, 48.847446046186448 ], [ 2.406314101803262, 48.847442152825145 ], [ 2.406325142887441, 48.847441261493231 ], [ 2.407728317389582, 48.84732788523025 ], [ 2.408005156303897, 48.847305512449807 ], [ 2.409452139637248, 48.847188575257 ], [ 2.409560994828016, 48.84717807295646 ], [ 2.410430610140161, 48.847099916828427 ], [ 2.410636271043429, 48.847081432137884 ], [ 2.410984175939999, 48.847050161675291 ], [ 2.411098021678265, 48.847039928071169 ], [ 2.411155246660877, 48.84703478483555 ], [ 2.411275410835626, 48.847024449056633 ], [ 2.411574377272921, 48.846998733285467 ], [ 2.411706005668424, 48.84698741110801 ], [ 2.413342083410245, 48.846846667539253 ], [ 2.413614205895823, 48.846823255888118 ], [ 2.413636353586917, 48.846821295025947 ], [ 2.413941542051228, 48.846794267401606 ], [ 2.414143890980671, 48.846776347742441 ], [ 2.414490506997807, 48.846745650760028 ], [ 2.414565150387199, 48.846739039754475 ], [ 2.415288896856696, 48.846674938736484 ], [ 2.415483939172267, 48.846657664612245 ], [ 2.415993782667184, 48.84661250401286 ], [ 2.41591911567092, 48.846241309883077 ], [ 2.415918847262609, 48.84623996943477 ], [ 2.415875376784052, 48.846023859184498 ], [ 2.415855108565025, 48.845923098216993 ], [ 2.415737761574643, 48.845339703978837 ], [ 2.415718948531499, 48.84524617094943 ], [ 2.415690740650429, 48.845105934396273 ], [ 2.415361953666606, 48.844040298188844 ], [ 2.415245536435292, 48.84366296744863 ], [ 2.415136792526323, 48.843310497107588 ], [ 2.415128683173229, 48.84328420884772 ], [ 2.415099498404957, 48.843189609458307 ], [ 2.414877392092523, 48.842469687279497 ], [ 2.414814238899316, 48.842264983280842 ], [ 2.414783377710914, 48.842164947001301 ], [ 2.414690585759219, 48.841864166117333 ], [ 2.414613958721673, 48.841615778019715 ], [ 2.414511880868107, 48.841301371093351 ], [ 2.414509779007566, 48.841294897120285 ], [ 2.414287881217013, 48.840536400075699 ], [ 2.413571837393758, 48.838088635661499 ], [ 2.413511477520538, 48.837882285393952 ], [ 2.41332305828289, 48.837374754042557 ], [ 2.413259697754498, 48.837204081745917 ], [ 2.413103145482937, 48.836782378330952 ], [ 2.413053997071511, 48.836649984948735 ], [ 2.412927331514038, 48.836308779443719 ], [ 2.412859284817569, 48.836125476498779 ], [ 2.412552033389257, 48.835297792696309 ], [ 2.412524774460409, 48.835224359831209 ], [ 2.41249436077468, 48.835142430465048 ], [ 2.412442459934882, 48.835002616846616 ], [ 2.412410233765849, 48.834915803989084 ], [ 2.412299617437366, 48.834617809567533 ], [ 2.412274092572367, 48.834549049217159 ], [ 2.412124855402813, 48.834451709768693 ], [ 2.412061168425268, 48.83441016989925 ], [ 2.411922917506233, 48.834319995455246 ], [ 2.411904073315744, 48.834307704731479 ], [ 2.411549258205432, 48.834076272877638 ], [ 2.411354739594916, 48.833949396652507 ], [ 2.411341666248052, 48.833940868395658 ], [ 2.41131274449225, 48.833922003088155 ], [ 2.411216852230974, 48.833859454269088 ], [ 2.411408220133334, 48.833822272996599 ], [ 2.411578354683804, 48.833791474974134 ], [ 2.411749274723735, 48.833762641187121 ], [ 2.411858420813249, 48.833745562089199 ], [ 2.41192093384308, 48.83373578129703 ], [ 2.412093274764637, 48.8337109022142 ], [ 2.412266248364713, 48.833688012687901 ], [ 2.412439798728881, 48.83366711963572 ], [ 2.41261387813713, 48.833648228216987 ], [ 2.412788426588915, 48.833631345329728 ], [ 2.412963396364457, 48.833616476133855 ], [ 2.413138732943384, 48.833603624856742 ], [ 2.413314380442849, 48.833592795719596 ], [ 2.413496473701583, 48.833582752498906 ], [ 2.413624085442563, 48.83357750983447 ], [ 2.413751814111535, 48.833573738967026 ], [ 2.413879624300608, 48.833571439722633 ] ] ] } }
]
}
